[
    {
        "Altitude(m)": 607911.0059424656,
        "Argument of Periapsis(deg)": 0.0,
        "Eccentricity": 0.0,
        "Inclination(deg)": 60.0,
        "Latitude(deg)": -14.292926775081334,
        "Longitude(deg)": -176.55737464361977,
        "Mean Anomaly(deg)": 196.36359999999996,
        "RAAN(deg)": 95.0,
        "Satellite Name": "Test1 430",
        "Satellite Number": 430,
        "Semi-Major Axis(m)": 6980739.136638005,
        "Time(s)": 0
    },
    {
        "Altitude(m)": 608060.239512631,
        "Argument of Periapsis(deg)": 0.00010418945913296404,
        "Eccentricity": 0.0,
        "Inclination(deg)": 60.0,
        "Latitude(deg)": -14.826588621455539,
        "Longitude(deg)": -176.26876609121837,
        "Mean Anomaly(deg)": 196.9837061454618,
        "RAAN(deg)": 94.99957995086027,
        "Satellite Name": "Test1 430",
        "Satellite Number": 430,
        "Semi-Major Axis(m)": 6980739.136638005,
        "Time(s)": 10
    },
    {
        "Altitude(m)": 608211.9032960052,
        "Argument of Periapsis(deg)": 0.0002083789182659281,
        "Eccentricity": 0.0,
        "Inclination(deg)": 60.0,
        "Latitude(deg)": -15.359734251380422,
        "Longitude(deg)": -175.97854875312177,
        "Mean Anomaly(deg)": 197.60381229092366,
        "RAAN(deg)": 94.99915990172052,
        "Satellite Name": "Test1 430",
        "Satellite Number": 430,
        "Semi-Major Axis(m)": 6980739.136638005,
        "Time(s)": 20
    },
    {
        "Altitude(m)": 608365.9492111802,
        "Argument of Periapsis(deg)": 0.00031256837739889213,
        "Eccentricity": 0.0,
        "Inclination(deg)": 60.0,
        "Latitude(deg)": -15.892342455807313,
        "Longitude(deg)": -175.6866551619509,
        "Mean Anomaly(deg)": 198.2239184363855,
        "RAAN(deg)": 94.99873985258078,
        "Satellite Name": "Test1 430",
        "Satellite Number": 430,
        "Semi-Major Axis(m)": 6980739.136638005,
        "Time(s)": 30
    },
    {
        "Altitude(m)": 608522.3279792082,
        "Argument of Periapsis(deg)": 0.0004167578365318562,
        "Eccentricity": 0.0,
        "Inclination(deg)": 60.0,
        "Latitude(deg)": -16.42439169343026,
        "Longitude(deg)": -175.39301633131623,
        "Mean Anomaly(deg)": 198.8440245818473,
        "RAAN(deg)": 94.99831980344103,
        "Satellite Name": "Test1 430",
        "Satellite Number": 430,
        "Semi-Major Axis(m)": 6980739.136638005,
        "Time(s)": 40
    },
    {
        "Altitude(m)": 608680.9891449156,
        "Argument of Periapsis(deg)": 0.0005209472956648203,
        "Eccentricity": 0.0,
        "Inclination(deg)": 60.0,
        "Latitude(deg)": -16.95586007466373,
        "Longitude(deg)": -175.0975627204883,
        "Mean Anomaly(deg)": 199.4641307273092,
        "RAAN(deg)": 94.99789975430129,
        "Satellite Name": "Test1 430",
        "Satellite Number": 430,
        "Semi-Major Axis(m)": 6980739.136638005,
        "Time(s)": 50
    },
    {
        "Altitude(m)": 608841.8810987549,
        "Argument of Periapsis(deg)": 0.0006251367547977843,
        "Eccentricity": 0.0,
        "Inclination(deg)": 60.0,
        "Latitude(deg)": -17.486725345142005,
        "Longitude(deg)": -174.80022368535793,
        "Mean Anomaly(deg)": 200.08423687277096,
        "RAAN(deg)": 94.99747970516155,
        "Satellite Name": "Test1 430",
        "Satellite Number": 430,
        "Semi-Major Axis(m)": 6980739.136638005,
        "Time(s)": 60
    },
    {
        "Altitude(m)": 609004.9510992394,
        "Argument of Periapsis(deg)": 0.0007293262139307483,
        "Eccentricity": 0.0,
        "Inclination(deg)": 60.0,
        "Latitude(deg)": -18.016964868716276,
        "Longitude(deg)": -174.5009269285325,
        "Mean Anomaly(deg)": 200.7043430182328,
        "RAAN(deg)": 94.9970596560218,
        "Satellite Name": "Test1 430",
        "Satellite Number": 430,
        "Semi-Major Axis(m)": 6980739.136638005,
        "Time(s)": 70
    },
    {
        "Altitude(m)": 609170.1452958955,
        "Argument of Periapsis(deg)": 0.0008335156730637124,
        "Eccentricity": 0.0,
        "Inclination(deg)": 60.0,
        "Latitude(deg)": -18.54655560991995,
        "Longitude(deg)": -174.19959946142066,
        "Mean Anomaly(deg)": 201.32444916369465,
        "RAAN(deg)": 94.99663960688207,
        "Satellite Name": "Test1 430",
        "Satellite Number": 430,
        "Semi-Major Axis(m)": 6980739.136638005,
        "Time(s)": 80
    },
    {
        "Altitude(m)": 609337.4087527444,
        "Argument of Periapsis(deg)": 0.0009377051321966765,
        "Eccentricity": 0.0,
        "Inclination(deg)": 60.0,
        "Latitude(deg)": -19.075474115886077,
        "Longitude(deg)": -173.89616705253601,
        "Mean Anomaly(deg)": 201.94455530915644,
        "RAAN(deg)": 94.99621955774232,
        "Satellite Name": "Test1 430",
        "Satellite Number": 430,
        "Semi-Major Axis(m)": 6980739.136638005,
        "Time(s)": 90
    },
    {
        "Altitude(m)": 609506.6854723232,
        "Argument of Periapsis(deg)": 0.0010418945913296407,
        "Eccentricity": 0.0,
        "Inclination(deg)": 60.0,
        "Latitude(deg)": -19.603696497687793,
        "Longitude(deg)": -173.5905536748712,
        "Mean Anomaly(deg)": 202.5646614546183,
        "RAAN(deg)": 94.99579950860257,
        "Satellite Name": "Test1 430",
        "Satellite Number": 430,
        "Semi-Major Axis(m)": 6980739.136638005,
        "Time(s)": 100
    },
    {
        "Altitude(m)": 609677.918420179,
        "Argument of Periapsis(deg)": 0.0011460840504626045,
        "Eccentricity": 0.0,
        "Inclination(deg)": 60.0,
        "Latitude(deg)": -20.131198411072102,
        "Longitude(deg)": -173.28268246519957,
        "Mean Anomaly(deg)": 203.1847676000801,
        "RAAN(deg)": 94.99537945946284,
        "Satellite Name": "Test1 430",
        "Satellite Number": 430,
        "Semi-Major Axis(m)": 6980739.136638005,
        "Time(s)": 110
    },
    {
        "Altitude(m)": 609851.0495498597,
        "Argument of Periapsis(deg)": 0.0012502735095955685,
        "Eccentricity": 0.0,
        "Inclination(deg)": 60.0,
        "Latitude(deg)": -20.65795503656799,
        "Longitude(deg)": -172.97247516953828,
        "Mean Anomaly(deg)": 203.80487374554195,
        "RAAN(deg)": 94.99495941032309,
        "Satellite Name": "Test1 430",
        "Satellite Number": 430,
        "Semi-Major Axis(m)": 6980739.136638005,
        "Time(s)": 120
    },
    {
        "Altitude(m)": 610026.0198284239,
        "Argument of Periapsis(deg)": 0.0013544629687285324,
        "Eccentricity": 0.0,
        "Inclination(deg)": 60.0,
        "Latitude(deg)": -21.183941058936103,
        "Longitude(deg)": -172.6598515876337,
        "Mean Anomaly(deg)": 204.42497989100374,
        "RAAN(deg)": 94.99453936118334,
        "Satellite Name": "Test1 430",
        "Satellite Number": 430,
        "Semi-Major Axis(m)": 6980739.136638005,
        "Time(s)": 130
    },
    {
        "Altitude(m)": 610202.7692623364,
        "Argument of Periapsis(deg)": 0.0014586524278614966,
        "Eccentricity": 0.0,
        "Inclination(deg)": 60.0,
        "Latitude(deg)": -21.709130645931264,
        "Longitude(deg)": -172.34473052932807,
        "Mean Anomaly(deg)": 205.04508603646565,
        "RAAN(deg)": 94.99411931204361,
        "Satellite Name": "Test1 430",
        "Satellite Number": 430,
        "Semi-Major Axis(m)": 6980739.136638005,
        "Time(s)": 140
    },
    {
        "Altitude(m)": 610381.2369238918,
        "Argument of Periapsis(deg)": 0.0015628418869944607,
        "Eccentricity": 0.0,
        "Inclination(deg)": 60.0,
        "Latitude(deg)": -22.23349742635193,
        "Longitude(deg)": -172.02702925705375,
        "Mean Anomaly(deg)": 205.66519218192744,
        "RAAN(deg)": 94.99369926290386,
        "Satellite Name": "Test1 430",
        "Satellite Number": 430,
        "Semi-Major Axis(m)": 6980739.136638005,
        "Time(s)": 150
    },
    {
        "Altitude(m)": 610561.3609780152,
        "Argument of Periapsis(deg)": 0.0016670313461274247,
        "Eccentricity": 0.0,
        "Inclination(deg)": 60.0,
        "Latitude(deg)": -22.757014467346085,
        "Longitude(deg)": -171.7066629273205,
        "Mean Anomaly(deg)": 206.28529832738928,
        "RAAN(deg)": 94.99327921376413,
        "Satellite Name": "Test1 430",
        "Satellite Number": 430,
        "Semi-Major Axis(m)": 6980739.136638005,
        "Time(s)": 160
    },
    {
        "Altitude(m)": 610743.078709538,
        "Argument of Periapsis(deg)": 0.0017712208052603888,
        "Eccentricity": 0.0,
        "Inclination(deg)": 60.0,
        "Latitude(deg)": -23.27965425093765,
        "Longitude(deg)": -171.38354554406817,
        "Mean Anomaly(deg)": 206.90540447285113,
        "RAAN(deg)": 94.99285916462438,
        "Satellite Name": "Test1 430",
        "Satellite Number": 430,
        "Semi-Major Axis(m)": 6980739.136638005,
        "Time(s)": 170
    },
    {
        "Altitude(m)": 610926.3265508378,
        "Argument of Periapsis(deg)": 0.001875410264393353,
        "Eccentricity": 0.0,
        "Inclination(deg)": 60.0,
        "Latitude(deg)": -23.801388649749683,
        "Longitude(deg)": -171.05758939813808,
        "Mean Anomaly(deg)": 207.5255106183129,
        "RAAN(deg)": 94.99243911548464,
        "Satellite Name": "Test1 430",
        "Satellite Number": 430,
        "Semi-Major Axis(m)": 6980739.136638005,
        "Time(s)": 180
    },
    {
        "Altitude(m)": 611111.0401098955,
        "Argument of Periapsis(deg)": 0.0019795997235263173,
        "Eccentricity": 0.0,
        "Inclination(deg)": 60.0,
        "Latitude(deg)": -24.322188901887163,
        "Longitude(deg)": -170.72870450574428,
        "Mean Anomaly(deg)": 208.14561676377474,
        "RAAN(deg)": 94.9920190663449,
        "Satellite Name": "Test1 430",
        "Satellite Number": 430,
        "Semi-Major Axis(m)": 6980739.136638005,
        "Time(s)": 190
    }
]